{"type": "FeatureCollection", "features": [{"type": "Feature", "properties": {}, "geometry": {"type": "Polygon", "coordinates": [[[-106.46421552440702, 31.971540799390848], [-106.46169987309199, 31.971693100894456], [-106.46168201343215, 31.975681087207217], [-106.46341458334669, 31.975623045479136], [-106.4633597078594, 31.987504272905685], [-106.46840177746132, 31.987350284122822], [-106.4683262273236, 32.000604010385786], [-106.53600058981237, 32.00081052584179], [-106.53652980012991, 31.957048939523332], [-106.52936134727325, 31.95701824255892], [-106.52995167060077, 31.913307050546358], [-106.52968438313054, 31.91330563147968], [-106.52963305789575, 31.884435301562416], [-106.5287542431841, 31.884448322875027], [-106.52889506342984, 31.87914293518295], [-106.51872401104171, 31.87907684613696], [-106.51872500013569, 31.871052259584534], [-106.50446637008314, 31.871104607445076], [-106.50487267548884, 31.84923533139182], [-106.50734909849658, 31.84887418270808], [-106.50573390059763, 31.846937546768448], [-106.50261466642782, 31.845432204067194], [-106.50571916153757, 31.84406535810011], [-106.50526643196976, 31.83565183195333], [-106.5041238927961, 31.83343560147705], [-106.49996576834991, 31.82865100962836], [-106.50298742875609, 31.824247792116314], [-106.49883390282135, 31.821166016660918], [-106.49882597190374, 31.81918989075199], [-106.5027737893194, 31.81914501920332], [-106.49945510483376, 31.81326940895614], [-106.49776299691717, 31.809497242233654], [-106.49569816567507, 31.809486008267747], [-106.49592295316796, 31.802134125103915], [-106.4886223617384, 31.8020980710874], [-106.48865053139313, 31.80876561289563], [-106.48181787091461, 31.80885765028306], [-106.4818584065738, 31.811596381376795], [-106.48587479904037, 31.81705808677089], [-106.4858143274042, 31.81868378763785], [-106.48521170085435, 31.818754819537546], [-106.48515940411968, 31.82084299816414], [-106.48462468064861, 31.820914178007758], [-106.48248318271752, 31.825470093991346], [-106.4808377971874, 31.825372060188034], [-106.48035009595672, 31.822638806484324], [-106.4735911954621, 31.82260746849991], [-106.47359121701984, 31.8255413089927], [-106.46084894838376, 31.825675790267997], [-106.46093629278582, 31.834283276991364], [-106.46501849484828, 31.834327158200804], [-106.46526075611072, 31.84074969389724], [-106.46929153626866, 31.840795877349144], [-106.46986413044985, 31.850449312261855], [-106.47079032292852, 31.850412049831498], [-106.47114629869371, 31.852897513534366], [-106.47351489160985, 31.85284176590715], [-106.47381606326759, 31.869033489290167], [-106.49005852733794, 31.868225163922727], [-106.49178611202187, 31.91258266492444], [-106.47488284779509, 31.912973351092816], [-106.47513756347004, 31.92734985746156], [-106.46707172588768, 31.92737210518069], [-106.46705918111469, 31.932618705612654], [-106.46844476189293, 31.932558064002777], [-106.46833383950411, 31.968556563008317], [-106.46422749313896, 31.968735674734326], [-106.46421552440702, 31.971540799390848]]]}}, {"type": "Feature", "properties": {}, "geometry": {"type": "Polygon", "coordinates": [[[-106.03955553325699, 31.923625792276383], [-106.05474805880073, 31.92314094327514], [-106.0547399569712, 31.903435939323703], [-106.03914588000416, 31.903431592893597], [-106.03955553325699, 31.923625792276383]]]}}, {"type": "Feature", "properties": {}, "geometry": {"type": "Polygon", "coordinates": [[[-106.47556835464172, 31.807753140397445], [-106.47788500921236, 31.807801391300323], [-106.47794511900658, 31.80684048203122], [-106.48000718452724, 31.806830352522116], [-106.4817913603463, 31.8059852245156], [-106.48180260429689, 31.802891841536347], [-106.47247507514919, 31.80260160053961], [-106.47234569469154, 31.80466210778506], [-106.47446802240529, 31.804866937478018], [-106.47440687434484, 31.80636328193543], [-106.47556835464172, 31.807753140397445]]]}}, {"type": "Feature", "properties": {}, "geometry": {"type": "Polygon", "coordinates": [[[-106.51375902201217, 31.99780522619368], [-106.51477127875515, 31.998048877926255], [-106.51474426247927, 31.997433549292914], [-106.51508054321161, 31.99713712302488], [-106.51439005035647, 31.996644759183816], [-106.51439768217179, 31.994864324938472], [-106.51399875085308, 31.99467622924742], [-106.513630188377, 31.994846620015775], [-106.51335521847135, 31.997265507203235], [-106.51375902201217, 31.99780522619368]]]}}, {"type": "Feature", "properties": {}, "geometry": {"type": "Polygon", "coordinates": [[[-106.4995478390119, 31.970265666668485], [-106.50185299475841, 31.972222273725976], [-106.50253340756719, 31.971958198283275], [-106.50162435881228, 31.96847838540137], [-106.5024279593233, 31.963722450015034], [-106.50144321457681, 31.959455610112006], [-106.50144600568477, 31.956727787813154], [-106.49967452605316, 31.954131038987068], [-106.49882399416917, 31.95124480002197], [-106.49968916203952, 31.947906260852612], [-106.49918294256707, 31.943756140517927], [-106.49996623296217, 31.9415110433942], [-106.4992069121576, 31.938273111371497], [-106.49945429260227, 31.933810438109777], [-106.49834202464395, 31.92932355687128], [-106.49883674742068, 31.927914454764952], [-106.5004010853972, 31.925680130970505], [-106.50032204024255, 31.922022647424537], [-106.50135886046624, 31.920229165552243], [-106.50104784656848, 31.919857363046162], [-106.49900414549033, 31.91927141219573], [-106.49697714435337, 31.917537626208226], [-106.49685460300144, 31.91793598539918], [-106.49886584584868, 31.923522041811335], [-106.49851904087144, 31.926189999933275], [-106.49671395427931, 31.929337759464694], [-106.49644700965625, 31.93056530625631], [-106.49741550930914, 31.939391537363143], [-106.4958350558034, 31.94615979705456], [-106.49588849429944, 31.949005453217364], [-106.49517611816161, 31.951133246376564], [-106.49654465829829, 31.953249414887214], [-106.49686293422343, 31.955212808550453], [-106.49652349925049, 31.95624108901323], [-106.4957162715617, 31.957265726363993], [-106.49264318810874, 31.959559991340768], [-106.49289890030072, 31.959979815056656], [-106.49556765750347, 31.9605441357836], [-106.49665095449971, 31.961666371101636], [-106.49699183954677, 31.963779056418176], [-106.49827398584966, 31.965585040150646], [-106.4981292044373, 31.967142864734193], [-106.49847142476993, 31.968428048882437], [-106.4974801034201, 31.969978436095595], [-106.4995478390119, 31.970265666668485]], [[-106.49847710430345, 31.95643579248097], [-106.49923646864882, 31.95699440245767], [-106.4985811254544, 31.95867872900015], [-106.49944011654799, 31.959381425376126], [-106.4989501579468, 31.96016071790503], [-106.49926802948981, 31.96092747306027], [-106.49932305823539, 31.96313017898286], [-106.4990482657515, 31.962890903420156], [-106.49880690092807, 31.960478449113076], [-106.49762902725371, 31.959781067493193], [-106.49575019462591, 31.95938512539777], [-106.49847710430345, 31.95643579248097]], [[-106.50009351522462, 31.96542534807896], [-106.50112299110201, 31.96639794596463], [-106.50084221886121, 31.968940826976272], [-106.50138295260278, 31.970038650668684], [-106.50116629398526, 31.97062549844852], [-106.50081511184975, 31.970533846814508], [-106.50026330257239, 31.969400560207745], [-106.49926845035006, 31.969511521236207], [-106.49979543266289, 31.969024163132588], [-106.50010393331634, 31.967869865714466], [-106.4997189281122, 31.965607793953115], [-106.50009351522462, 31.96542534807896]]]}}, {"type": "Feature", "properties": {}, "geometry": {"type": "Polygon", "coordinates": [[[-106.50010237548348, 31.96934217043978], [-106.50058714479819, 31.969760444579727], [-106.50081511184975, 31.970533846814508], [-106.50126791026575, 31.970577782845496], [-106.50134505798721, 31.969865327534038], [-106.50084221886121, 31.968940826976272], [-106.50112299110201, 31.96639794596463], [-106.50009351522462, 31.96542534807896], [-106.4997189281122, 31.965607793953115], [-106.50010393331634, 31.967869865714466], [-106.49979543266289, 31.969024163132588], [-106.49926845035006, 31.969511521236207], [-106.50010237548348, 31.96934217043978]]]}}, {"type": "Feature", "properties": {}, "geometry": {"type": "Polygon", "coordinates": [[[-106.49576898351557, 31.95929473343307], [-106.49769924154953, 31.95980762644321], [-106.49880690092807, 31.960478449113076], [-106.4990482657515, 31.962890903420156], [-106.4993787637497, 31.9631216858862], [-106.49926138902586, 31.960880121124024], [-106.4989501579468, 31.96016071790503], [-106.49944011654799, 31.959381425376126], [-106.4985811254544, 31.95867872900015], [-106.49916287563238, 31.95686613913374], [-106.49833224936852, 31.956431947334362], [-106.49709975889098, 31.958220066386517], [-106.49576898351557, 31.95929473343307]]]}}, {"type": "Feature", "properties": {}, "geometry": {"type": "Polygon", "coordinates": [[[-106.52196595039594, 31.942493359530342], [-106.52103164815846, 31.942965650864057], [-106.5215368283564, 31.94331169625546], [-106.52241645355335, 31.94280067792541], [-106.52196595039594, 31.942493359530342]]]}}, {"type": "Feature", "properties": {}, "geometry": {"type": "Polygon", "coordinates": [[[-106.49037155893662, 31.911648427109718], [-106.49263828561719, 31.91227765335275], [-106.49360901873399, 31.913055096010524], [-106.49447356062116, 31.91330088869909], [-106.49539487947104, 31.913032336774492], [-106.49643639406136, 31.91152851816341], [-106.49767968632123, 31.91087665586301], [-106.49861190337306, 31.91093145515399], [-106.49970590346115, 31.91182541376702], [-106.50054217245629, 31.91201269214197], [-106.50112065867265, 31.911460215773488], [-106.50090826207665, 31.909100979983613], [-106.50269239524258, 31.9093450757696], [-106.50352179172681, 31.908691508146713], [-106.50350053684193, 31.906934680622317], [-106.50072314347064, 31.90444062942272], [-106.49927745633799, 31.901853915634167], [-106.49946032434681, 31.90029456065403], [-106.50111135624344, 31.898032724453284], [-106.49898177145228, 31.89604161432856], [-106.49972713346175, 31.892039422045627], [-106.49756722044944, 31.88665328401316], [-106.49775262778412, 31.885507986544095], [-106.49722378559507, 31.885165439223023], [-106.49667030488712, 31.886347427052044], [-106.49652885297186, 31.887851769748444], [-106.49531700593867, 31.88761469419006], [-106.4939306236209, 31.889906461052256], [-106.49138861782433, 31.891037796377386], [-106.4901293256137, 31.89371247331416], [-106.4880464476463, 31.893880155247828], [-106.48602228059059, 31.892365755638394], [-106.48516410470474, 31.89244751800709], [-106.4861849056191, 31.89428789659528], [-106.48902033988608, 31.896222312919022], [-106.48979363289229, 31.897599021709585], [-106.4896293378698, 31.898195756485396], [-106.48907121830098, 31.898579351925047], [-106.48634050099666, 31.89797643816925], [-106.48539370741166, 31.89866154391476], [-106.48541931283499, 31.900017281433993], [-106.48684460932267, 31.903459165990668], [-106.48667010480015, 31.90445774426303], [-106.48556221806797, 31.904869439784147], [-106.4806544421487, 31.904434637925092], [-106.47977951874397, 31.904767616884307], [-106.48062490846229, 31.90575017239835], [-106.48497851321636, 31.908739914482204], [-106.48885766162473, 31.91002365784537], [-106.49037155893662, 31.911648427109718]], [[-106.49604253084674, 31.909920330843978], [-106.49462654233672, 31.911444361095775], [-106.49396380137047, 31.910440299602502], [-106.49252375435826, 31.910257964376264], [-106.49210974556597, 31.909754437784002], [-106.4921755600087, 31.909149389567773], [-106.49171596637245, 31.908795175207807], [-106.49074295110627, 31.908816152233584], [-106.48954401057651, 31.908285949106038], [-106.4885258622855, 31.908760575206667], [-106.48783872045243, 31.907943318283177], [-106.48677946931483, 31.908413459578785], [-106.4852610075607, 31.907047300590282], [-106.48408248459164, 31.907319894583054], [-106.48312365739991, 31.905780824464568], [-106.4833606859479, 31.905541014666124], [-106.48522259874267, 31.905825410531925], [-106.485916630864, 31.905598736803675], [-106.48901608487334, 31.906993011111133], [-106.48957954963205, 31.90534985213279], [-106.48702283585585, 31.903254254321006], [-106.48698152025733, 31.90140988001177], [-106.48613436642819, 31.90033167744768], [-106.48597773188389, 31.899036001676798], [-106.4867983772822, 31.89880026979554], [-106.48769056923688, 31.900261029766853], [-106.48831869525101, 31.90070747922158], [-106.48988509299981, 31.89918444118006], [-106.49177357019357, 31.898917630987686], [-106.49087539666549, 31.89694361571644], [-106.48969574733336, 31.895291634337173], [-106.49023588884255, 31.89508369823574], [-106.49187763604813, 31.89526030794087], [-106.49231866517853, 31.89464746904718], [-106.49311130163562, 31.894594287303097], [-106.49319226490483, 31.89266991156776], [-106.4941660029204, 31.891640725760674], [-106.49490080596053, 31.89165592953743], [-106.49592907463835, 31.89227392337523], [-106.49698165495168, 31.891665493460444], [-106.49671017531891, 31.889956459549374], [-106.49624912059704, 31.88916359693412], [-106.49700940707599, 31.88889496334804], [-106.49754293240824, 31.89049425703962], [-106.49803881633068, 31.890748661163535], [-106.49817617790356, 31.89182612959482], [-106.49873864837103, 31.892550184181616], [-106.49838497540664, 31.89282743310588], [-106.49845701828131, 31.89412827937336], [-106.49742731338718, 31.894523050995495], [-106.49721828396058, 31.89506842786554], [-106.4975542920801, 31.896052360684543], [-106.49685879666721, 31.897550257267074], [-106.49737597119244, 31.89803233139021], [-106.49856464257536, 31.89835011339787], [-106.49718005571474, 31.899187022849326], [-106.49758879315318, 31.900022581943748], [-106.49705732513227, 31.900889957682917], [-106.4973497002891, 31.901737143192477], [-106.49679085586509, 31.9022075308693], [-106.49686656167897, 31.903783577401825], [-106.4982454597984, 31.905489290298437], [-106.49962709027187, 31.904013069148277], [-106.49936281881023, 31.90625665348818], [-106.50052323403202, 31.90641786792675], [-106.50210046170236, 31.907781298105633], [-106.49989917171203, 31.90757833775575], [-106.49967950504804, 31.908997560176914], [-106.4988850238531, 31.908486062600897], [-106.49672429995933, 31.90826998093469], [-106.49587830848832, 31.909125584753692], [-106.49604253084674, 31.909920330843978]]]}}, {"type": "Feature", "properties": {}, "geometry": {"type": "Polygon", "coordinates": [[[-106.49224884318312, 31.909993931869053], [-106.49396380137047, 31.910440299602502], [-106.49468259361426, 31.911442610773367], [-106.49601764297637, 31.90996301347323], [-106.49587830848832, 31.909125584753692], [-106.49672429995933, 31.90826998093469], [-106.4988850238531, 31.908486062600897], [-106.49967950504804, 31.908997560176914], [-106.49989917171203, 31.90757833775575], [-106.50210046170236, 31.907781298105633], [-106.50052323403202, 31.90641786792675], [-106.49936281881023, 31.90625665348818], [-106.49962709027187, 31.904013069148277], [-106.4982454597984, 31.905489290298437], [-106.49686656167897, 31.903783577401825], [-106.49679085586509, 31.9022075308693], [-106.4973497002891, 31.901737143192477], [-106.49705732513227, 31.900889957682917], [-106.49758879315318, 31.900022581943748], [-106.49718005571474, 31.899187022849326], [-106.49856464257536, 31.89835011339787], [-106.49737597013697, 31.898032331440163], [-106.49685879666721, 31.897550257267074], [-106.4975542920801, 31.896052360684543], [-106.49721828396058, 31.89506842786554], [-106.49742731338718, 31.894523050995495], [-106.49845701828131, 31.89412827937336], [-106.49838497540664, 31.89282743310588], [-106.49873864837103, 31.892550184181616], [-106.49817617790356, 31.89182612959482], [-106.49803881633068, 31.890748661163535], [-106.49754293240824, 31.89049425703962], [-106.49706455532996, 31.888901934042316], [-106.49624912059704, 31.88916359693412], [-106.49671017531891, 31.889956459549374], [-106.49698165495168, 31.891665493460444], [-106.49592907463835, 31.89227392337523], [-106.49490080596053, 31.89165592953743], [-106.4941660029204, 31.891640725760674], [-106.49319226490483, 31.89266991156776], [-106.49311130163562, 31.894594287303097], [-106.49231866517853, 31.89464746904718], [-106.49187763604813, 31.89526030794087], [-106.49023588884255, 31.89508369823574], [-106.48969574733336, 31.895291634337173], [-106.49087539666549, 31.89694361571644], [-106.49177357019357, 31.898917630987686], [-106.48988509299981, 31.89918444118006], [-106.48831869525101, 31.90070747922158], [-106.48769056923688, 31.900261029766853], [-106.4867983772822, 31.89880026979554], [-106.48597773188389, 31.899036001676798], [-106.48613436642819, 31.90033167744768], [-106.48698152025733, 31.90140988001177], [-106.48702283585585, 31.903254254321006], [-106.48957954963205, 31.90534985213279], [-106.48901608487334, 31.906993011111133], [-106.485916630864, 31.905598736803675], [-106.4831315223851, 31.905733707628798], [-106.48408248459164, 31.907319894583054], [-106.4852610075607, 31.907047300590282], [-106.48677946931483, 31.908413459578785], [-106.48783872045243, 31.907943318283177], [-106.4885258622855, 31.908760575206667], [-106.48954401057651, 31.908285949106038], [-106.49074295110627, 31.908816152233584], [-106.49171596637245, 31.908795175207807], [-106.4921755600087, 31.909149389567773], [-106.49224884318312, 31.909993931869053]], [[-106.49598190487981, 31.907082760472118], [-106.49451801484543, 31.908773833270462], [-106.49352950365447, 31.9086813221179], [-106.4918273518089, 31.90692281622198], [-106.48983320724017, 31.90222501162401], [-106.49044134727112, 31.901084661045804], [-106.49277389407462, 31.900346432091272], [-106.49339527057428, 31.899723578199172], [-106.4936138694455, 31.898554594596607], [-106.49287949694, 31.89709055905576], [-106.49287470655231, 31.89637516275979], [-106.49371432699675, 31.895614253510402], [-106.49478026154111, 31.89372333974909], [-106.49585714190975, 31.893283807328444], [-106.49631348614045, 31.893653580143905], [-106.49649851802009, 31.894402482402466], [-106.49588157526546, 31.89706190184525], [-106.49570709904883, 31.903572251598536], [-106.49599077525498, 31.904639294633522], [-106.49696244263762, 31.906151575231668], [-106.4978870598225, 31.906897124732378], [-106.49598190487981, 31.907082760472118]]]}}, {"type": "Feature", "properties": {}, "geometry": {"type": "Polygon", "coordinates": [[[-106.49164504816609, 31.906639740137756], [-106.4934817208944, 31.90865394625932], [-106.49445855119544, 31.908786821072], [-106.49589766072955, 31.907125117769343], [-106.49787285983638, 31.90695606575983], [-106.49608390251865, 31.904807133904203], [-106.49570709904883, 31.903572251598536], [-106.49588157526546, 31.89706190184525], [-106.49649851802009, 31.894402482402466], [-106.49591144608637, 31.893291061514446], [-106.49478026154111, 31.89372333974909], [-106.49371432699675, 31.895614253510402], [-106.49287470655231, 31.89637516275979], [-106.49287949694, 31.89709055905576], [-106.4936138694455, 31.898554594596607], [-106.49334204883402, 31.89980236702509], [-106.49271009143797, 31.90037444449562], [-106.4904851105451, 31.90105552051162], [-106.48986072821107, 31.90204455417551], [-106.48998192677881, 31.902966782471694], [-106.491230878735, 31.90521260375933], [-106.49164504816609, 31.906639740137756]], [[-106.49502925522994, 31.906137346758484], [-106.49418906355562, 31.90725318718201], [-106.49373112726568, 31.907025865043124], [-106.4930173537684, 31.90455282550026], [-106.49222579216318, 31.90351334915238], [-106.4922773458216, 31.90259237876462], [-106.49283056396686, 31.90224948639217], [-106.49395123452214, 31.902639921826292], [-106.49505004100236, 31.905264372100078], [-106.49502925522994, 31.906137346758484]]]}}, {"type": "Feature", "properties": {}, "geometry": {"type": "Polygon", "coordinates": [[[-106.4922773458216, 31.90259237876462], [-106.49222579216318, 31.90351334915238], [-106.4930173537684, 31.90455282550026], [-106.49370783197243, 31.906981091553234], [-106.49429317884191, 31.90722681658927], [-106.495122974728, 31.905815210307644], [-106.49422774654988, 31.903181133939107], [-106.49337036076675, 31.902271471723264], [-106.4922773458216, 31.90259237876462]]]}}, {"type": "Feature", "properties": {}, "geometry": {"type": "Polygon", "coordinates": [[[-106.46546992020774, 31.899848509348775], [-106.46507984444996, 31.90026554583949], [-106.4658520245908, 31.90134647403696], [-106.46757851354857, 31.902149693073046], [-106.4686491917695, 31.902046541149545], [-106.46787051067959, 31.90103571120075], [-106.46546992020774, 31.899848509348775]]]}}, {"type": "Feature", "properties": {}, "geometry": {"type": "Polygon", "coordinates": [[[-106.49474217619056, 31.884358006754887], [-106.49604984386244, 31.884562672224558], [-106.49687814258301, 31.885024434588836], [-106.49670456498949, 31.88407632736852], [-106.49474217619056, 31.884358006754887]]]}}, {"type": "Feature", "properties": {}, "geometry": {"type": "Polygon", "coordinates": [[[-106.49478232600433, 31.86913648325869], [-106.49603479533445, 31.869800171297225], [-106.49700070631208, 31.8735014551266], [-106.49767391242338, 31.873739478107897], [-106.49886039456622, 31.871332973210325], [-106.49799009296926, 31.870121740696042], [-106.49743782612842, 31.868234730096788], [-106.49781605711412, 31.86761359349773], [-106.4978297106617, 31.866570669441757], [-106.49890714650411, 31.864719708841047], [-106.49802572565054, 31.863542714742582], [-106.498882972695, 31.86229527866701], [-106.4960447582832, 31.86083625470243], [-106.49697935264787, 31.859462163091617], [-106.4951098974068, 31.859293165563717], [-106.49443446709724, 31.858691067975418], [-106.49450532062116, 31.85687503524365], [-106.49583522358853, 31.85620923450647], [-106.49570582342947, 31.85520430132885], [-106.49644369020243, 31.853804517827687], [-106.49599011047083, 31.853348543708353], [-106.49408811273689, 31.85303281322863], [-106.49361938266918, 31.852630551870607], [-106.49444220279568, 31.84974013583988], [-106.49415024935983, 31.849306713997684], [-106.49319898661774, 31.851106553267893], [-106.49152097167658, 31.8514736509618], [-106.49118938740592, 31.854064692921767], [-106.48968168816587, 31.855291565120563], [-106.48757792685117, 31.853386807200376], [-106.4866402121701, 31.853589659483838], [-106.48709396004645, 31.855678400131787], [-106.48875325369613, 31.85786506608752], [-106.48873604426919, 31.858805603829218], [-106.48742902834874, 31.859383611561295], [-106.48591379617902, 31.860688415940103], [-106.48528249534591, 31.86179813046024], [-106.4823062732668, 31.86241375069897], [-106.4805075355668, 31.863542921760565], [-106.47895749608233, 31.86308996158191], [-106.47851277789081, 31.863229286870634], [-106.4811213610358, 31.86448062373651], [-106.48092949477709, 31.865094129109984], [-106.48118484675778, 31.865385258294534], [-106.48392758131409, 31.86514231572562], [-106.48624496321234, 31.86596204621767], [-106.48676300798019, 31.86686911977417], [-106.48667293374668, 31.86843789602788], [-106.48744218292359, 31.86899871807258], [-106.48742825379908, 31.869626155401512], [-106.48923779310007, 31.87191566248096], [-106.48967173756073, 31.87300256914742], [-106.49169302165004, 31.87294728485144], [-106.4929361743819, 31.870744895615914], [-106.49478232600433, 31.86913648325869]], [[-106.49228495560607, 31.86855709556406], [-106.49197011257597, 31.869931325891155], [-106.49140073265016, 31.870418718192937], [-106.49151113853839, 31.871043629874812], [-106.49186816341647, 31.871270625796477], [-106.4913180921849, 31.87176637551654], [-106.49057986652305, 31.871724894904006], [-106.49052426128644, 31.87110297462816], [-106.48961744659982, 31.870480374866872], [-106.48964202757097, 31.869966048169452], [-106.48928094959703, 31.86995632644972], [-106.48901649504715, 31.869143735266146], [-106.4884042367819, 31.869053274299556], [-106.48836768587245, 31.86850018781355], [-106.48803621025483, 31.868344790659158], [-106.48847605331626, 31.867994424060083], [-106.48843520890742, 31.86772468343548], [-106.48799687673723, 31.867678907988445], [-106.4884392695951, 31.8666793446597], [-106.48803646489984, 31.866619941454317], [-106.48813831728954, 31.866127951695614], [-106.48759342889626, 31.86612575864615], [-106.48749796212493, 31.865800756651037], [-106.48804200369493, 31.865189503472614], [-106.48593425611277, 31.86495821078162], [-106.48461542276033, 31.864155115413023], [-106.4829412286599, 31.864365678783106], [-106.48218248381883, 31.863809688587786], [-106.48535353881621, 31.863379588781164], [-106.48656696437145, 31.86392366472695], [-106.48727763446873, 31.86358264778277], [-106.48729886547049, 31.863093052961865], [-106.48803137604119, 31.86293093645868], [-106.48765145120497, 31.86195558422257], [-106.48780483163706, 31.861480302050232], [-106.48880909053771, 31.861079925140057], [-106.48863613112572, 31.86078215825465], [-106.48910435972805, 31.86059419018548], [-106.48886399473628, 31.860210881578652], [-106.48935019595658, 31.85953882717056], [-106.49059487504711, 31.859499795459218], [-106.4905875961546, 31.85802802854592], [-106.48979303118125, 31.857559955246668], [-106.48981257643115, 31.8566549970686], [-106.48935197940405, 31.856532108359], [-106.4888010917728, 31.855572601164077], [-106.49002466344761, 31.855995630728273], [-106.49027732390039, 31.856530310259448], [-106.49072822960592, 31.85666138120703], [-106.49133700497934, 31.85596783463195], [-106.49197609304697, 31.85578056091881], [-106.49111705063102, 31.855298499886096], [-106.49237922111857, 31.854899121242337], [-106.49255609563852, 31.85416258537955], [-106.49216096621568, 31.853786909413703], [-106.49223010943773, 31.853404788621692], [-106.49271695142508, 31.853406726966927], [-106.49334102267372, 31.853777830907642], [-106.49508140555179, 31.85395248143933], [-106.49369416772475, 31.8550336120753], [-106.49419162998957, 31.85562976740084], [-106.49324167732227, 31.856173459799994], [-106.49330184400723, 31.857315305171877], [-106.49214873981592, 31.85785541921705], [-106.4925654958765, 31.85848151647633], [-106.49232778585558, 31.85910504834568], [-106.49257451239048, 31.859499392211486], [-106.49360331210454, 31.859429200735214], [-106.49425579346016, 31.8599627031301], [-106.49397350948273, 31.86211006625434], [-106.49533813112915, 31.861909141847796], [-106.49549492656956, 31.862223353060724], [-106.49497762833633, 31.862595447642445], [-106.49555689904984, 31.862878313552116], [-106.49560943336466, 31.863472751586155], [-106.49697795293001, 31.863092999831945], [-106.49699086698716, 31.863932091632183], [-106.49735101592898, 31.864175596527538], [-106.4965292413728, 31.86575141718952], [-106.49687636823035, 31.866872422395595], [-106.49637929796012, 31.867016266672955], [-106.4962341351152, 31.867865747719872], [-106.49575126205278, 31.867671266943436], [-106.49531666066271, 31.86666268084341], [-106.49478467009561, 31.86665783716154], [-106.49446786434231, 31.86603762245932], [-106.49390014133937, 31.866104153705106], [-106.49341512606482, 31.867290644825705], [-106.49273714934051, 31.867519010385365], [-106.4929697260719, 31.86824068644917], [-106.49228495560607, 31.86855709556406]]]}}, {"type": "Feature", "properties": {}, "geometry": {"type": "Polygon", "coordinates": [[[-106.4884042367819, 31.869053274299556], [-106.48901649504715, 31.869143735266146], [-106.4890530444638, 31.86969409484477], [-106.48964202757097, 31.869966048169452], [-106.48961744659982, 31.870480374866872], [-106.49052426128644, 31.87110297462816], [-106.49057986652305, 31.871724894904006], [-106.4913180921849, 31.87176637551654], [-106.49186816341647, 31.871270625796477], [-106.49151113847991, 31.87104362897436], [-106.49140073265016, 31.870418718192937], [-106.49188233562417, 31.870112537488378], [-106.49249900485104, 31.868238817553962], [-106.4929697260719, 31.86824068644917], [-106.49273714934051, 31.867519010385365], [-106.49341512606482, 31.867290644825705], [-106.49390014133937, 31.866104153705106], [-106.49446786434231, 31.86603762245932], [-106.49478467009561, 31.86665783716154], [-106.49531666066271, 31.86666268084341], [-106.49575126205278, 31.867671266943436], [-106.4962341351152, 31.867865747719872], [-106.49637929796012, 31.867016266672955], [-106.49687636823035, 31.866872422395595], [-106.4965292413728, 31.86575141718952], [-106.49735101592898, 31.864175596527538], [-106.49699086698716, 31.863932091632183], [-106.49697795293001, 31.863092999831945], [-106.49560943336466, 31.863472751586155], [-106.49555689904984, 31.862878313552116], [-106.49497762833633, 31.862595447642445], [-106.49549492656956, 31.862223353060724], [-106.49533813112915, 31.861909141847796], [-106.49397350948273, 31.86211006625434], [-106.49425579346016, 31.8599627031301], [-106.49360331210454, 31.859429200735214], [-106.49257451239048, 31.859499392211486], [-106.49232778585558, 31.85910504834568], [-106.4925654958765, 31.85848151647633], [-106.49214873981592, 31.85785541921705], [-106.49330184400723, 31.857315305171877], [-106.49324167732227, 31.856173459799994], [-106.49419162998957, 31.85562976740084], [-106.49369416772475, 31.8550336120753], [-106.49508140555179, 31.85395248143933], [-106.49488862452478, 31.85377017982322], [-106.4938854692183, 31.853892769006272], [-106.49223010943773, 31.853404788621692], [-106.49216096621568, 31.853786909413703], [-106.49255609563852, 31.85416258537955], [-106.49237922111857, 31.854899121242337], [-106.49111705063102, 31.855298499886096], [-106.49197609304697, 31.85578056091881], [-106.49133700497934, 31.85596783463195], [-106.49072822960592, 31.85666138120703], [-106.49027732390039, 31.856530310259448], [-106.49002466344761, 31.855995630728273], [-106.4888010917728, 31.855572601164077], [-106.48935197940405, 31.856532108359], [-106.48981257643115, 31.8566549970686], [-106.48979303118125, 31.857559955246668], [-106.4905875961546, 31.85802802854592], [-106.49059487504711, 31.859499795459218], [-106.48935019595658, 31.85953882717056], [-106.48886399473628, 31.860210881578652], [-106.48910435972805, 31.86059419018548], [-106.48863613112572, 31.86078215825465], [-106.48880909053771, 31.861079925140057], [-106.48780483163706, 31.861480302050232], [-106.48765145120497, 31.86195558422257], [-106.48803137604119, 31.86293093645868], [-106.48729886547049, 31.863093052961865], [-106.48727763446873, 31.86358264778277], [-106.48656696437145, 31.86392366472695], [-106.48535353881621, 31.863379588781164], [-106.48218248381883, 31.863809688587786], [-106.4829412286599, 31.864365678783106], [-106.48461542276033, 31.864155115413023], [-106.48593425611277, 31.86495821078162], [-106.48804200369493, 31.865189503472614], [-106.48749796212493, 31.865800756651037], [-106.48759342889626, 31.86612575864615], [-106.48813831728954, 31.866127951695614], [-106.48803646489984, 31.866619941454317], [-106.4884392695951, 31.8666793446597], [-106.48799462999658, 31.867425803078536], [-106.48799687673723, 31.867678907988445], [-106.48843520890742, 31.86772468343548], [-106.48847605331626, 31.867994424060083], [-106.48804033943814, 31.868113739283952], [-106.4884042367819, 31.869053274299556]], [[-106.490440430844, 31.868404093406728], [-106.48993588854775, 31.868759645607494], [-106.49011335524033, 31.867330817302925], [-106.49056377745018, 31.86655079980161], [-106.48961394781078, 31.86487982708885], [-106.48876422422738, 31.864433455621334], [-106.48987029935542, 31.863928734368823], [-106.48992944152786, 31.86271722142087], [-106.4905974060202, 31.86172777140994], [-106.4916016042599, 31.86128368083779], [-106.49212071155799, 31.862705752269335], [-106.49310129983533, 31.86362211120121], [-106.49321549784166, 31.864234866277094], [-106.49235169386388, 31.86475022786823], [-106.49211245085432, 31.866025202152617], [-106.49071093491473, 31.867617002176665], [-106.490440430844, 31.868404093406728]]]}}, {"type": "Feature", "properties": {}, "geometry": {"type": "Polygon", "coordinates": [[[-106.49007130670395, 31.867772678394974], [-106.49008389598646, 31.868818576188048], [-106.49211245085432, 31.866025202152617], [-106.49235169386388, 31.86475022786823], [-106.4932014932964, 31.864303916758825], [-106.49312524781652, 31.863665175132144], [-106.49218629589011, 31.862816907778097], [-106.4916016042599, 31.86128368083779], [-106.4905974060202, 31.86172777140994], [-106.48992944152786, 31.86271722142087], [-106.48987029935542, 31.863928734368823], [-106.48877366959671, 31.864386812677278], [-106.48961394781078, 31.86487982708885], [-106.49056377745018, 31.86655079980161], [-106.49007130670395, 31.867772678394974]]]}}, {"type": "Feature", "properties": {}, "geometry": {"type": "Polygon", "coordinates": [[[-106.4987576736108, 31.841611989026333], [-106.49938489393315, 31.841905076526174], [-106.49972192675659, 31.841587264849082], [-106.49849122000913, 31.839271287834407], [-106.49852837555557, 31.837786050507027], [-106.49750334410133, 31.837231470835455], [-106.4968304740725, 31.835731532450325], [-106.49590340508831, 31.834777630640556], [-106.4958223103312, 31.83417211703459], [-106.49629868164115, 31.83344614623892], [-106.49560703066808, 31.832771074910923], [-106.49560645430847, 31.832272972394207], [-106.49382686950645, 31.831449026667222], [-106.49396602301104, 31.82979916280454], [-106.49290487636338, 31.828534696548864], [-106.49305050393978, 31.827826192525617], [-106.49440109848148, 31.827171725199914], [-106.49483187240914, 31.82653322896776], [-106.49380243724138, 31.825769364348382], [-106.49173911223257, 31.825494249068893], [-106.49087201365582, 31.823243790120664], [-106.49231307435679, 31.822359979652322], [-106.4911170750672, 31.818746810228344], [-106.4876443794597, 31.81274331410266], [-106.48726978410608, 31.81123762565647], [-106.48486054741741, 31.807774509737495], [-106.48480324610226, 31.808347209144838], [-106.48593745268045, 31.810309515888342], [-106.48598652986436, 31.812462321033244], [-106.4874585007198, 31.813710430360256], [-106.48981442703631, 31.818028358596276], [-106.48980201827167, 31.819930352563457], [-106.48927129192789, 31.821643582196597], [-106.48774878252716, 31.822501482339078], [-106.48749037099026, 31.82299394776262], [-106.48954260245932, 31.826365110588817], [-106.4892622189946, 31.82708180156471], [-106.48798607382629, 31.828025096069087], [-106.48823134333367, 31.82990843882533], [-106.48988140878382, 31.83085693091614], [-106.48880630379725, 31.832036699266183], [-106.48963255019517, 31.83244103622398], [-106.49039653554402, 31.833337691933213], [-106.49172460998706, 31.833912190661863], [-106.49249965446036, 31.835531773253305], [-106.49346968614508, 31.8363076060665], [-106.4947821800308, 31.838407515063995], [-106.496299158971, 31.83893994003541], [-106.49715710576002, 31.84012667352422], [-106.49738760334371, 31.841866412130873], [-106.4987576736108, 31.841611989026333]], [[-106.49288368620603, 31.826676245391138], [-106.49183631440717, 31.827259008978004], [-106.49127149134108, 31.828392401149134], [-106.49163075337982, 31.828753832449298], [-106.49138234902196, 31.829368503824835], [-106.49185484490492, 31.829831162592225], [-106.4931832966546, 31.830080620388788], [-106.49241379211495, 31.830183370655064], [-106.49205476052241, 31.83057301613281], [-106.49208315128156, 31.831142352217174], [-106.49250581020804, 31.831998658011322], [-106.49319761339986, 31.832520817926156], [-106.49424582074064, 31.832774370145366], [-106.49428681182042, 31.83329687260261], [-106.4946509626242, 31.833514986973363], [-106.49440258574913, 31.834430006651825], [-106.49602441807102, 31.836172140140118], [-106.49651200988704, 31.837720002407096], [-106.49625376501803, 31.837806999076744], [-106.49322215746825, 31.833655133817956], [-106.49175788603328, 31.832607512094906], [-106.49106501416996, 31.832561323434554], [-106.49083773014337, 31.83144271987735], [-106.49124405005897, 31.830821745033262], [-106.48957928715402, 31.82889297518396], [-106.48962533939608, 31.82840306606101], [-106.49045551745381, 31.827515995249726], [-106.4902411122969, 31.82713464355037], [-106.49064624942616, 31.826978640477407], [-106.49066647534475, 31.826488860017193], [-106.49134468305837, 31.826848725036648], [-106.49176203526929, 31.826546861107182], [-106.49288368620603, 31.826676245391138]]]}}, {"type": "Feature", "properties": {}, "geometry": {"type": "Polygon", "coordinates": [[[-106.49064624942616, 31.826978640477407], [-106.4902411122969, 31.82713464355037], [-106.49045551745381, 31.827515995249726], [-106.48962533939608, 31.82840306606101], [-106.48957928715402, 31.82889297518396], [-106.49124405005897, 31.830821745033262], [-106.49083773014337, 31.83144271987735], [-106.49106501416996, 31.832561323434554], [-106.49175788603328, 31.832607512094906], [-106.49322215746825, 31.833655133817956], [-106.49591296868093, 31.8375470956412], [-106.49651200988704, 31.837720002407096], [-106.49602441807102, 31.836172140140118], [-106.49440258574913, 31.834430006651825], [-106.4946509626242, 31.833514986973363], [-106.49428681182042, 31.83329687260261], [-106.49424582074064, 31.832774370145366], [-106.49319761339986, 31.832520817926156], [-106.49250581020804, 31.831998658011322], [-106.49208315128156, 31.831142352217174], [-106.49205476052241, 31.83057301613281], [-106.49241379211495, 31.830183370655064], [-106.4931832966546, 31.830080620388788], [-106.49185484490492, 31.829831162592225], [-106.49138234902196, 31.829368503824835], [-106.49163075337982, 31.828753832449298], [-106.49127149134108, 31.828392401149134], [-106.49183631440717, 31.827259008978004], [-106.49288368620603, 31.826676245391138], [-106.49176203526929, 31.826546861107182], [-106.49134468305837, 31.826848725036648], [-106.49093678450639, 31.82643251901238], [-106.49066647534475, 31.826488860017193], [-106.49064624942616, 31.826978640477407]]]}}, {"type": "Feature", "properties": {}, "geometry": {"type": "Polygon", "coordinates": [[[-106.47085599904194, 31.818588318082803], [-106.4707462467466, 31.81983772704958], [-106.47234541012944, 31.820801345070983], [-106.472703733424, 31.821630452673595], [-106.47365325892639, 31.821477456526928], [-106.47284044179747, 31.81928879981648], [-106.47103038809956, 31.818037327833128], [-106.47102539394098, 31.81705255874974], [-106.47064684953958, 31.81671869993508], [-106.47042456961651, 31.817979641007817], [-106.47085599904194, 31.818588318082803]]]}}, {"type": "Feature", "properties": {}, "geometry": {"type": "Polygon", "coordinates": [[[-106.54217906417446, 31.7942213401071], [-106.54384079572881, 31.795306553980797], [-106.54484757295124, 31.795064407440766], [-106.54534427422784, 31.793973213347293], [-106.54684210340407, 31.794289867360774], [-106.54767299295597, 31.79483245079635], [-106.54862273430193, 31.793719602621394], [-106.55108376081778, 31.794863589229255], [-106.55150514847473, 31.79435823041942], [-106.55130948728694, 31.793106005216707], [-106.55047225418106, 31.792466705231444], [-106.5513150104336, 31.791455991839964], [-106.55312092354941, 31.791272627019396], [-106.55249754568985, 31.79042902767859], [-106.5526987179295, 31.790031234357706], [-106.553604827859, 31.789987916596605], [-106.55414578390528, 31.789573872481068], [-106.55305034353448, 31.788461715716494], [-106.55313824763581, 31.788069332390965], [-106.55358495225953, 31.78795092975357], [-106.5534336531081, 31.787375898097984], [-106.55225667758276, 31.786752852551036], [-106.55252673208109, 31.785672455219917], [-106.55160164982765, 31.785425540340345], [-106.55132443539492, 31.78466243509154], [-106.55165786900994, 31.784549452897988], [-106.55049361076091, 31.784119872909915], [-106.55053716455038, 31.783050303329308], [-106.55015304782265, 31.782389347952297], [-106.54700016500125, 31.78108430916321], [-106.54602520495806, 31.781810181851384], [-106.54545259969738, 31.78174048153896], [-106.54306093588174, 31.779913783033543], [-106.53900854613667, 31.778748536401604], [-106.53907179040871, 31.77971596021512], [-106.53646698155777, 31.779840191752292], [-106.53661184635145, 31.780318505961002], [-106.53618412106867, 31.780727075173345], [-106.53506422284595, 31.780974555031914], [-106.53481926252833, 31.782441891375775], [-106.53278065564137, 31.78253905374808], [-106.53225859762574, 31.783243235988355], [-106.53248558091339, 31.78497920384238], [-106.53366921460601, 31.78744593212273], [-106.53472017317782, 31.787881060793026], [-106.53475228450841, 31.79011153026447], [-106.53535021700127, 31.790568247422886], [-106.53659614006197, 31.790508849646983], [-106.53699284150778, 31.791363325838432], [-106.53789896918467, 31.791320117470338], [-106.5378868911196, 31.792873390233297], [-106.538755673102, 31.793996484959845], [-106.53951059906402, 31.79337820986489], [-106.54016551407669, 31.794705583138814], [-106.5414431290243, 31.795129849021446], [-106.54217906417446, 31.7942213401071]], [[-106.54958770767091, 31.791538530522793], [-106.54944948779588, 31.792030356189898], [-106.54866929100395, 31.792261717005967], [-106.5481694705003, 31.793304552468506], [-106.5467437534485, 31.792353686761725], [-106.54613028345838, 31.792528546389534], [-106.54600154285723, 31.793165479876336], [-106.54404749733398, 31.79282207287645], [-106.54344317913149, 31.79226865538229], [-106.54316034143092, 31.79315554893783], [-106.54209979335974, 31.792575379097624], [-106.54135437746876, 31.793338774406795], [-106.54069027273313, 31.792739676162455], [-106.5412657906976, 31.791984391076152], [-106.54061434953569, 31.791578773748217], [-106.53971770850607, 31.791767114175897], [-106.53914158966039, 31.79077563645948], [-106.53799312414964, 31.790587801672242], [-106.5375271348826, 31.789542543240707], [-106.53704589778582, 31.790002188651258], [-106.53650432310269, 31.788669399662826], [-106.53654803844094, 31.787599834794783], [-106.535481271324, 31.786922865863723], [-106.53510356244813, 31.78635860941045], [-106.53540541635783, 31.785761956832307], [-106.53459363623884, 31.7855095236577], [-106.53430391711143, 31.784552896761785], [-106.53440453530341, 31.784354013738383], [-106.53557504376263, 31.784880478011793], [-106.53656908177591, 31.784444910196818], [-106.53688673110807, 31.784090111358584], [-106.53660647222242, 31.78327860126435], [-106.53766976695358, 31.7830338080401], [-106.53751224874728, 31.78236201273708], [-106.53781723665625, 31.781813727011013], [-106.53893110555329, 31.78234286231192], [-106.53882072084099, 31.78152325342935], [-106.5406327923641, 31.781436804316794], [-106.54251130568842, 31.78236612259081], [-106.54306492531092, 31.78214560993311], [-106.54364702414298, 31.782360433259573], [-106.54517033917881, 31.783937458719446], [-106.54611438609142, 31.784474644687233], [-106.54663001579318, 31.78367366640087], [-106.54713967176508, 31.783649324548765], [-106.54839220718468, 31.784559935820806], [-106.54871336025785, 31.78512685860372], [-106.54832328837843, 31.785242540487737], [-106.54882066722256, 31.785898089401094], [-106.54960714483482, 31.7857634678243], [-106.54979604108937, 31.786045574760667], [-106.54931488304794, 31.78650526423831], [-106.54934656010117, 31.786988972657962], [-106.55056747918805, 31.787415855259773], [-106.54992592843641, 31.788028777984128], [-106.55104627488438, 31.788654549761404], [-106.55061223635344, 31.78896642552888], [-106.55102325020597, 31.78968913212842], [-106.54976315666205, 31.789880395914437], [-106.5498799827512, 31.790796734077972], [-106.5491972255851, 31.790780833316465], [-106.54894573813235, 31.791278068075737], [-106.54958770767091, 31.791538530522793]]]}}, {"type": "Feature", "properties": {}, "geometry": {"type": "Polygon", "coordinates": [[[-106.5467437534485, 31.792353686761725], [-106.5481694705003, 31.793304552468506], [-106.54866929100395, 31.792261717005967], [-106.54944948779588, 31.792030356189898], [-106.54958770767091, 31.791538530522793], [-106.54894573813235, 31.791278068075737], [-106.5491972255851, 31.790780833316465], [-106.5498799827512, 31.790796734077972], [-106.54976315666205, 31.789880395914437], [-106.55110331097985, 31.789525223524077], [-106.55061857321152, 31.78906316688324], [-106.55104627488438, 31.788654549761404], [-106.54992592843641, 31.788028777984128], [-106.55056747918805, 31.787415855259773], [-106.54934656010117, 31.786988972657962], [-106.54931488304794, 31.78650526423831], [-106.54979604108937, 31.786045574760667], [-106.54937429055416, 31.785677548529808], [-106.54888046464485, 31.785943753310452], [-106.54863810865743, 31.78571272081181], [-106.54832328837843, 31.785242540487737], [-106.54864406151742, 31.78493608174719], [-106.5477879172787, 31.784006536621362], [-106.54663001579318, 31.78367366640087], [-106.54611438609142, 31.784474644687233], [-106.54517033917881, 31.783937458719446], [-106.54364702414298, 31.782360433259573], [-106.54306492531092, 31.78214560993311], [-106.54251130568842, 31.78236612259081], [-106.5406327923641, 31.781436804316794], [-106.53882072084099, 31.78152325342935], [-106.53893110555329, 31.78234286231192], [-106.53781723665625, 31.781813727011013], [-106.53751224874728, 31.78236201273708], [-106.53766976695358, 31.7830338080401], [-106.53660647222242, 31.78327860126435], [-106.53688673110807, 31.784090111358584], [-106.53623879035013, 31.784606222672828], [-106.53557504376263, 31.784880478011793], [-106.53440453530341, 31.784354013738383], [-106.53459363623884, 31.7855095236577], [-106.53540541635783, 31.785761956832307], [-106.53510356244813, 31.78635860941045], [-106.53654803844094, 31.787599834794783], [-106.53650432310269, 31.788669399662826], [-106.53704589778582, 31.790002188651258], [-106.5375271348826, 31.789542543240707], [-106.53799312414964, 31.790587801672242], [-106.53914158966039, 31.79077563645948], [-106.53971770850607, 31.791767114175897], [-106.54061434953569, 31.791578773748217], [-106.5412657906976, 31.791984391076152], [-106.54069027273313, 31.792739676162455], [-106.54088548564873, 31.793118535920126], [-106.54157774909201, 31.793279593188398], [-106.54209979335974, 31.792575379097624], [-106.54316034143092, 31.79315554893783], [-106.54344317913149, 31.79226865538229], [-106.54404749733398, 31.79282207287645], [-106.54600154285723, 31.793165479876336], [-106.54613028345838, 31.792528546389534], [-106.5467437534485, 31.792353686761725]], [[-106.54325978694847, 31.789899832105228], [-106.5421271456218, 31.7899538883069], [-106.54169243381783, 31.788518973054497], [-106.54051551820346, 31.787895825438248], [-106.54055918604287, 31.78682626079791], [-106.53992330138647, 31.78578911295912], [-106.54021879410026, 31.7850957081193], [-106.54126343465859, 31.785434039444354], [-106.54362921422396, 31.785127041679075], [-106.54418352805558, 31.786653289184603], [-106.5455933059084, 31.787362331328275], [-106.54614694748864, 31.787141806004705], [-106.54747515056198, 31.788339945333714], [-106.54749415158525, 31.78863017171555], [-106.54705376927484, 31.78884529316499], [-106.54502136768238, 31.7890393893855], [-106.54527321943097, 31.789415540312497], [-106.54495242135116, 31.789721990155638], [-106.54388240438541, 31.78899671849547], [-106.54321548121112, 31.78922263936017], [-106.54325978694847, 31.789899832105228]]]}}, {"type": "Feature", "properties": {}, "geometry": {"type": "Polygon", "coordinates": [[[-106.54169243381783, 31.788518973054497], [-106.5421271456218, 31.7899538883069], [-106.54325978694847, 31.789899832105228], [-106.54321548121112, 31.78922263936017], [-106.54388240438541, 31.78899671849547], [-106.54495242135116, 31.789721990155638], [-106.54527321943097, 31.789415540312497], [-106.54502136768238, 31.7890393893855], [-106.54705376927484, 31.78884529316499], [-106.54749415158525, 31.78863017171555], [-106.54747515056198, 31.788339945333714], [-106.54614694748864, 31.787141806004705], [-106.5455933059084, 31.787362331328275], [-106.54418352805558, 31.786653289184603], [-106.54362921422396, 31.785127041679075], [-106.54126343465859, 31.785434039444354], [-106.54021879410026, 31.7850957081193], [-106.53992330138647, 31.78578911295912], [-106.54055918604287, 31.78682626079791], [-106.54051551820346, 31.787895825438248], [-106.54169243381783, 31.788518973054497]]]}}, {"type": "Feature", "properties": {}, "geometry": {"type": "Polygon", "coordinates": [[[-106.05929911592557, 31.692123698595093], [-106.06077101320787, 31.694681381143912], [-106.05870132903941, 31.69483337177397], [-106.05975490160468, 31.696457472258984], [-106.06080605698884, 31.699512181119882], [-106.06179678456913, 31.701323631235134], [-106.06295794182918, 31.70180279131614], [-106.06405687880391, 31.700807616247747], [-106.06368700269309, 31.69947768915042], [-106.06249296554888, 31.698008285617675], [-106.06280584509905, 31.6950467373946], [-106.06191192430798, 31.694159244184128], [-106.06112701290978, 31.692335920208567], [-106.05929911592557, 31.692123698595093]]]}}]}